IRIDIUM 136             
1 42962U 17061H   24188.87049693  .00000355  00000+0  11954-3 0  9992
2 42962  86.3983 322.0916 0002079 102.3175 257.8254 14.34218026353029
